OBJECT_NAME,OBJECT_ID,EPOCH,MEAN_MOTION,ECCENTRICITY,INCLINATION,RA_OF_ASC_NODE,ARG_OF_PERICENTER,MEAN_ANOMALY,EPHEMERIS_TYPE,CLASSIFICATION_TYPE,NORAD_CAT_ID,ELEMENT_SET_NO,REV_AT_EPOCH,BSTAR,MEAN_MOTION_DOT,MEAN_MOTION_DDOT
IRIDIUM 154,2018-061F,2026-07-23T02:13:22.455264,14.34218177,.00022941,86.3938,41.7867,88.8519,271.2940,0,U,43574,999,41855,.30480271E-4,.105E-5,0
IRIDIUM 163,2018-061G,2026-07-23T01:45:58.420512,14.34218370,.00021143,86.3935,41.7086,88.0586,272.0852,0,U,43575,999,41852,.31109938E-4,.107E-5,0
IRIDIUM 156,2018-061H,2026-07-23T01:09:26.403264,14.34217897,.00021814,86.3936,41.7268,93.2067,266.9379,0,U,43576,999,41851,.50260547E-4,.161E-5,0
IRIDIUM 164,2018-061J,2026-07-23T10:44:50.483328,14.34217747,.00023141,86.3938,41.6004,88.0685,272.0776,0,U,43577,999,41861,.225247E-5,.26E-6,0
IRIDIUM 159,2018-061K,2026-07-23T01:36:50.428512,14.34217834,.00020815,86.3936,41.6958,87.2677,272.8757,0,U,43578,999,41852,.11172417E-4,.51E-6,0
IRIDIUM 180,2019-002A,2026-07-23T08:17:58.910208,14.34218621,.00021536,86.4000,338.4837,91.5999,268.5444,0,U,43922,999,39417,.53361756E-4,.169E-5,0
IRIDIUM 176,2019-002B,2026-07-23T07:37:48.389088,14.72257327,.00023427,86.6121,338.4337,91.9206,268.2279,0,U,43923,999,40456,.10557796E-3,.69E-5,0
IRIDIUM 168,2019-002C,2026-07-23T08:08:50.860320,14.34219318,.00021932,86.4002,338.5645,91.8841,268.2606,0,U,43924,999,39415,.71680317E-4,.221E-5,0
IRIDIUM 173,2019-002D,2026-07-23T14:32:26.938176,14.34217396,.00020382,86.3998,338.3410,93.2260,266.9169,0,U,43925,999,39417,-.1790063E-4,-.3E-6,0
IRIDIUM 169,2019-002E,2026-07-23T10:06:33.170400,14.38601957,.00021315,86.4230,10.0404,104.4154,255.7281,0,U,43926,999,39543,.83648368E-4,.276E-5,0
IRIDIUM 172,2019-002F,2026-07-23T07:41:26.922336,14.34217850,.00021917,86.4000,338.4680,92.2512,267.8935,0,U,43927,999,39414,-.1520114E-5,.16E-6,0
IRIDIUM 175,2019-002G,2026-07-23T12:39:18.113472,14.43630311,.00055798,86.4502,275.3312,99.2968,260.8865,0,U,43928,999,40422,.61765543E-4,.23E-5,0
IRIDIUM 171,2019-002H,2026-07-23T08:54:30.955968,14.34218667,.00022841,86.4010,338.7569,95.1108,265.0348,0,U,43929,999,39414,.61964691E-4,.193E-5,0
IRIDIUM 170,2019-002J,2026-07-23T09:24:33.559776,14.72257955,.00021894,86.6119,338.4048,89.9785,270.1683,0,U,43930,999,40458,.10411885E-3,.681E-5,0
IRIDIUM 167,2019-002K,2026-07-23T08:45:22.946688,14.34217946,.00024174,86.3999,338.4719,98.4634,261.6835,0,U,43931,999,39414,.57011158E-4,.179E-5,0
IRIDIUM 181,2023-068S,2026-07-23T07:06:49.049856,14.43310115,.00023152,86.4474,41.6886,83.4434,276.7031,0,U,56726,999,16764,.6665442E-4,.245E-5,0
IRIDIUM 177,2023-068T,2026-07-23T08:35:24.631872,14.80031995,.00022589,86.1986,311.6209,97.2014,262.9464,0,U,56727,999,17171,.13934548E-3,.108E-4,0
IRIDIUM 174,2023-068U,2026-07-23T10:44:29.279040,14.72253584,.00019124,86.6125,338.5322,94.9578,265.1858,0,U,56728,999,17135,.10748033E-3,.702E-5,0
IRIDIUM 178,2023-068V,2026-07-23T13:11:43.050048,14.80023267,.0002284,86.6543,10.1626,92.2650,267.8833,0,U,56729,999,17174,.96895031E-4,.759E-5,0
IRIDIUM 179,2023-068W,2026-07-23T11:26:38.888736,14.80026009,.00024084,86.6772,19.2790,94.0972,266.0525,0,U,56730,999,17173,.36245405E-4,.3E-5,0
